[
  {
    "name": "PLEIADES NEO 3",
    "line1": "1 48268U 21034A   25361.85574623  .00000033  00000+0  10754-4 0  9991",
    "line2": "2 48268  97.8941  74.0796 0001358  86.5093 273.6275 14.81673766252289",
    "catNr": 48268
  },
  {
    "name": "PLEIADES NEO 4",
    "line1": "1 49070U 21073E   25361.82196943 -.00000048  00000+0  52874-6 0  9996",
    "line2": "2 49070  97.8940  74.0421 0001298  88.9681 271.1681 14.81672460235990",
    "catNr": 49070
  }
]